48985,ONEWEB-0267,2021,109.37,148.0,+,87.91,Active,1,LEO,Russia,UK,Commercial,Communications,Soyuz,1 48985U 21060U   24195.94090094  .00000080  00000+0  17616-3 0  9990,2 48985  87.9108   8.7773 0001972  79.5862 280.5491 13.16593465147056,13.16593465,0.0001972,LEO
48986,ONEWEB-0268,2021,109.37,148.0,+,87.91,Active,1,LEO,Russia,UK,Commercial,Communications,Soyuz,1 48986U 21060V   24196.21321837  .00000014  00000+0  38747-5 0  9991,2 48986  87.9106   8.7291 0001933  89.3560 270.7792 13.16594606148640,13.16594606,0.0001933,LEO
48987,ONEWEB-0269,2021,109.37,148.0,+,87.91,Active,1,LEO,Russia,UK,Commercial,Communications,Soyuz,1 48987U 21060W   24195.89024075 -.00000066  00000+0 -20691-3 0  9995,2 48987  87.9111   8.8198 0001892  94.2809 265.8538 13.16594106147084,13.16594106,0.0001892,LEO
48988,ONEWEB-0270,2021,109.37,148.0,+,87.91,Active,1,LEO,Russia,UK,Commercial,Communications,Soyuz,1 48988U 21060X   24195.90765356  .00000013  00000+0  16025-5 0  9990,2 48988  87.9105   8.7978 0001706  72.7071 287.4246 13.16593558147120,13.16593558,0.0001706,LEO
48989,ONEWEB-0271,2021,109.37,148.0,+,87.91,Active,1,LEO,Russia,UK,Commercial,Communications,Soyuz,1 48989U 21060Y   24195.89498187 -.00000010  00000+0 -59422-4 0  9990,2 48989  87.9108   8.7774 0001900  79.3598 280.7747 13.16593339147120,13.16593339,0.00019,LEO
48990,ONEWEB-0272,2021,109.37,148.0,+,87.91,Active,1,LEO,Russia,UK,Commercial,Communications,Soyuz,1 48990U 21060Z   24195.99313734  .00005344  00000+0  13942-1 0  9994,2 48990  87.9106   8.7870 0001992  86.6292 273.5066 13.16566536148382,13.16566536,0.0001992,LEO
48991,ONEWEB-0273,2021,109.37,148.0,+,87.91,Active,1,LEO,Russia,UK,Commercial,Communications,Soyuz,1 48991U 21060AA  24196.01531014  .00000066  00000+0  13940-3 0  9998,2 48991  87.9108   8.7692 0001675  86.0170 274.1152 13.16592973148369,13.16592973,0.0001675,LEO
48992,ONEWEB-0274,2021,109.37,148.0,+,87.91,Active,1,LEO,Russia,UK,Commercial,Communications,Soyuz,1 48992U 21060AB  24195.88865267  .00000001  00000+0 -31405-4 0  9990,2 48992  87.9118   8.8099 0002362  87.2081 272.9320 13.16593137147085,13.16593137,0.0002362,LEO
