<?xml version="1.0" encoding="UTF-8"?>
<ndm xmlns:xsi="http://www.w3.org/2001/XMLSchema-instance" xsi:noNamespaceSchemaLocation="https://sanaregistry.org/r/ndmxml_unqualified/ndmxml-2.0.0-master-2.0.xsd">
<omm id="CCSDS_OMM_VERS" version="2.0">
<header><CREATION_DATE/><ORIGINATOR/></header><body><segment><metadata><OBJECT_NAME>ONEWEB-0267</OBJECT_NAME><OBJECT_ID>2021-060U</OBJECT_ID><CENTER_NAME>EARTH</CENTER_NAME><REF_FRAME>TEME</REF_FRAME><TIME_SYSTEM>UTC</TIME_SYSTEM><MEAN_ELEMENT_THEORY>SGP4</MEAN_ELEMENT_THEORY></metadata><data><meanElements><EPOCH>2024-07-13T22:34:53.841216</EPOCH><MEAN_MOTION>13.16593465</MEAN_MOTION><ECCENTRICITY>.0001972</ECCENTRICITY><INCLINATION>87.9108</INCLINATION><RA_OF_ASC_NODE>8.7773</RA_OF_ASC_NODE><ARG_OF_PERICENTER>79.5862</ARG_OF_PERICENTER><MEAN_ANOMALY>280.5491</MEAN_ANOMALY></meanElements><tleParameters><EPHEMERIS_TYPE>0</EPHEMERIS_TYPE><CLASSIFICATION_TYPE>U</CLASSIFICATION_TYPE><NORAD_CAT_ID>48985</NORAD_CAT_ID><ELEMENT_SET_NO>999</ELEMENT_SET_NO><REV_AT_EPOCH>14705</REV_AT_EPOCH><BSTAR>.17616E-3</BSTAR><MEAN_MOTION_DOT>.8E-6</MEAN_MOTION_DOT><MEAN_MOTION_DDOT>0</MEAN_MOTION_DDOT></tleParameters></data></segment></body></omm>
<omm id="CCSDS_OMM_VERS" version="2.0">
<header><CREATION_DATE/><ORIGINATOR/></header><body><segment><metadata><OBJECT_NAME>ONEWEB-0268</OBJECT_NAME><OBJECT_ID>2021-060V</OBJECT_ID><CENTER_NAME>EARTH</CENTER_NAME><REF_FRAME>TEME</REF_FRAME><TIME_SYSTEM>UTC</TIME_SYSTEM><MEAN_ELEMENT_THEORY>SGP4</MEAN_ELEMENT_THEORY></metadata><data><meanElements><EPOCH>2024-07-14T05:07:02.067168</EPOCH><MEAN_MOTION>13.16594606</MEAN_MOTION><ECCENTRICITY>.0001933</ECCENTRICITY><INCLINATION>87.9106</INCLINATION><RA_OF_ASC_NODE>8.7291</RA_OF_ASC_NODE><ARG_OF_PERICENTER>89.3560</ARG_OF_PERICENTER><MEAN_ANOMALY>270.7792</MEAN_ANOMALY></meanElements><tleParameters><EPHEMERIS_TYPE>0</EPHEMERIS_TYPE><CLASSIFICATION_TYPE>U</CLASSIFICATION_TYPE><NORAD_CAT_ID>48986</NORAD_CAT_ID><ELEMENT_SET_NO>999</ELEMENT_SET_NO><REV_AT_EPOCH>14864</REV_AT_EPOCH><BSTAR>.38747E-5</BSTAR><MEAN_MOTION_DOT>.14E-6</MEAN_MOTION_DOT><MEAN_MOTION_DDOT>0</MEAN_MOTION_DDOT></tleParameters></data></segment></body></omm>
<omm id="CCSDS_OMM_VERS" version="2.0">
<header><CREATION_DATE/><ORIGINATOR/></header><body><segment><metadata><OBJECT_NAME>ONEWEB-0269</OBJECT_NAME><OBJECT_ID>2021-060W</OBJECT_ID><CENTER_NAME>EARTH</CENTER_NAME><REF_FRAME>TEME</REF_FRAME><TIME_SYSTEM>UTC</TIME_SYSTEM><MEAN_ELEMENT_THEORY>SGP4</MEAN_ELEMENT_THEORY></metadata><data><meanElements><EPOCH>2024-07-13T21:21:56.800800</EPOCH><MEAN_MOTION>13.16594106</MEAN_MOTION><ECCENTRICITY>.0001892</ECCENTRICITY><INCLINATION>87.9111</INCLINATION><RA_OF_ASC_NODE>8.8198</RA_OF_ASC_NODE><ARG_OF_PERICENTER>94.2809</ARG_OF_PERICENTER><MEAN_ANOMALY>265.8538</MEAN_ANOMALY></meanElements><tleParameters><EPHEMERIS_TYPE>0</EPHEMERIS_TYPE><CLASSIFICATION_TYPE>U</CLASSIFICATION_TYPE><NORAD_CAT_ID>48987</NORAD_CAT_ID><ELEMENT_SET_NO>999</ELEMENT_SET_NO><REV_AT_EPOCH>14708</REV_AT_EPOCH><BSTAR>-.20691E-3</BSTAR><MEAN_MOTION_DOT>-.66E-6</MEAN_MOTION_DOT><MEAN_MOTION_DDOT>0</MEAN_MOTION_DDOT></tleParameters></data></segment></body></omm>
<omm id="CCSDS_OMM_VERS" version="2.0">
<header><CREATION_DATE/><ORIGINATOR/></header><body><segment><metadata><OBJECT_NAME>ONEWEB-0270</OBJECT_NAME><OBJECT_ID>2021-060X</OBJECT_ID><CENTER_NAME>EARTH</CENTER_NAME><REF_FRAME>TEME</REF_FRAME><TIME_SYSTEM>UTC</TIME_SYSTEM><MEAN_ELEMENT_THEORY>SGP4</MEAN_ELEMENT_THEORY></metadata><data><meanElements><EPOCH>2024-07-13T21:47:01.267584</EPOCH><MEAN_MOTION>13.16593558</MEAN_MOTION><ECCENTRICITY>.0001706</ECCENTRICITY><INCLINATION>87.9105</INCLINATION><RA_OF_ASC_NODE>8.7978</RA_OF_ASC_NODE><ARG_OF_PERICENTER>72.7071</ARG_OF_PERICENTER><MEAN_ANOMALY>287.4246</MEAN_ANOMALY></meanElements><tleParameters><EPHEMERIS_TYPE>0</EPHEMERIS_TYPE><CLASSIFICATION_TYPE>U</CLASSIFICATION_TYPE><NORAD_CAT_ID>48988</NORAD_CAT_ID><ELEMENT_SET_NO>999</ELEMENT_SET_NO><REV_AT_EPOCH>14712</REV_AT_EPOCH><BSTAR>.16025E-5</BSTAR><MEAN_MOTION_DOT>.13E-6</MEAN_MOTION_DOT><MEAN_MOTION_DDOT>0</MEAN_MOTION_DDOT></tleParameters></data></segment></body></omm>
<omm id="CCSDS_OMM_VERS" version="2.0">
<header><CREATION_DATE/><ORIGINATOR/></header><body><segment><metadata><OBJECT_NAME>ONEWEB-0271</OBJECT_NAME><OBJECT_ID>2021-060Y</OBJECT_ID><CENTER_NAME>EARTH</CENTER_NAME><REF_FRAME>TEME</REF_FRAME><TIME_SYSTEM>UTC</TIME_SYSTEM><MEAN_ELEMENT_THEORY>SGP4</MEAN_ELEMENT_THEORY></metadata><data><meanElements><EPOCH>2024-07-13T21:28:46.433568</EPOCH><MEAN_MOTION>13.16593339</MEAN_MOTION><ECCENTRICITY>.00019</ECCENTRICITY><INCLINATION>87.9108</INCLINATION><RA_OF_ASC_NODE>8.7774</RA_OF_ASC_NODE><ARG_OF_PERICENTER>79.3598</ARG_OF_PERICENTER><MEAN_ANOMALY>280.7747</MEAN_ANOMALY></meanElements><tleParameters><EPHEMERIS_TYPE>0</EPHEMERIS_TYPE><CLASSIFICATION_TYPE>U</CLASSIFICATION_TYPE><NORAD_CAT_ID>48989</NORAD_CAT_ID><ELEMENT_SET_NO>999</ELEMENT_SET_NO><REV_AT_EPOCH>14712</REV_AT_EPOCH><BSTAR>-.59422E-4</BSTAR><MEAN_MOTION_DOT>-.1E-6</MEAN_MOTION_DOT><MEAN_MOTION_DDOT>0</MEAN_MOTION_DDOT></tleParameters></data></segment></body></omm>
<omm id="CCSDS_OMM_VERS" version="2.0">
<header><CREATION_DATE/><ORIGINATOR/></header><body><segment><metadata><OBJECT_NAME>ONEWEB-0272</OBJECT_NAME><OBJECT_ID>2021-060Z</OBJECT_ID><CENTER_NAME>EARTH</CENTER_NAME><REF_FRAME>TEME</REF_FRAME><TIME_SYSTEM>UTC</TIME_SYSTEM><MEAN_ELEMENT_THEORY>SGP4</MEAN_ELEMENT_THEORY></metadata><data><meanElements><EPOCH>2024-07-13T23:50:07.066176</EPOCH><MEAN_MOTION>13.16566536</MEAN_MOTION><ECCENTRICITY>.0001992</ECCENTRICITY><INCLINATION>87.9106</INCLINATION><RA_OF_ASC_NODE>8.7870</RA_OF_ASC_NODE><ARG_OF_PERICENTER>86.6292</ARG_OF_PERICENTER><MEAN_ANOMALY>273.5066</MEAN_ANOMALY></meanElements><tleParameters><EPHEMERIS_TYPE>0</EPHEMERIS_TYPE><CLASSIFICATION_TYPE>U</CLASSIFICATION_TYPE><NORAD_CAT_ID>48990</NORAD_CAT_ID><ELEMENT_SET_NO>999</ELEMENT_SET_NO><REV_AT_EPOCH>14838</REV_AT_EPOCH><BSTAR>.13942E-1</BSTAR><MEAN_MOTION_DOT>.5344E-4</MEAN_MOTION_DOT><MEAN_MOTION_DDOT>0</MEAN_MOTION_DDOT></tleParameters></data></segment></body></omm>
<omm id="CCSDS_OMM_VERS" version="2.0">
<header><CREATION_DATE/><ORIGINATOR/></header><body><segment><metadata><OBJECT_NAME>ONEWEB-0273</OBJECT_NAME><OBJECT_ID>2021-060AA</OBJECT_ID><CENTER_NAME>EARTH</CENTER_NAME><REF_FRAME>TEME</REF_FRAME><TIME_SYSTEM>UTC</TIME_SYSTEM><MEAN_ELEMENT_THEORY>SGP4</MEAN_ELEMENT_THEORY></metadata><data><meanElements><EPOCH>2024-07-14T00:22:02.796096</EPOCH><MEAN_MOTION>13.16592973</MEAN_MOTION><ECCENTRICITY>.0001675</ECCENTRICITY><INCLINATION>87.9108</INCLINATION><RA_OF_ASC_NODE>8.7692</RA_OF_ASC_NODE><ARG_OF_PERICENTER>86.0170</ARG_OF_PERICENTER><MEAN_ANOMALY>274.1152</MEAN_ANOMALY></meanElements><tleParameters><EPHEMERIS_TYPE>0</EPHEMERIS_TYPE><CLASSIFICATION_TYPE>U</CLASSIFICATION_TYPE><NORAD_CAT_ID>48991</NORAD_CAT_ID><ELEMENT_SET_NO>999</ELEMENT_SET_NO><REV_AT_EPOCH>14836</REV_AT_EPOCH><BSTAR>.1394E-3</BSTAR><MEAN_MOTION_DOT>.66E-6</MEAN_MOTION_DOT><MEAN_MOTION_DDOT>0</MEAN_MOTION_DDOT></tleParameters></data></segment></body></omm>
<omm id="CCSDS_OMM_VERS" version="2.0">
<header><CREATION_DATE/><ORIGINATOR/></header><body><segment><metadata><OBJECT_NAME>ONEWEB-0274</OBJECT_NAME><OBJECT_ID>2021-060AB</OBJECT_ID><CENTER_NAME>EARTH</CENTER_NAME><REF_FRAME>TEME</REF_FRAME><TIME_SYSTEM>UTC</TIME_SYSTEM><MEAN_ELEMENT_THEORY>SGP4</MEAN_ELEMENT_THEORY></metadata><data><meanElements><EPOCH>2024-07-13T21:19:39.590688</EPOCH><MEAN_MOTION>13.16593137</MEAN_MOTION><ECCENTRICITY>.0002362</ECCENTRICITY><INCLINATION>87.9118</INCLINATION><RA_OF_ASC_NODE>8.8099</RA_OF_ASC_NODE><ARG_OF_PERICENTER>87.2081</ARG_OF_PERICENTER><MEAN_ANOMALY>272.9320</MEAN_ANOMALY></meanElements><tleParameters><EPHEMERIS_TYPE>0</EPHEMERIS_TYPE><CLASSIFICATION_TYPE>U</CLASSIFICATION_TYPE><NORAD_CAT_ID>48992</NORAD_CAT_ID><ELEMENT_SET_NO>999</ELEMENT_SET_NO><REV_AT_EPOCH>14708</REV_AT_EPOCH><BSTAR>-.31405E-4</BSTAR><MEAN_MOTION_DOT>.1E-7</MEAN_MOTION_DOT><MEAN_MOTION_DDOT>0</MEAN_MOTION_DDOT></tleParameters></data></segment></body></omm>

</ndm>
